{"type": "FeatureCollection", "features": [ {"type": "Feature", "properties": {"norad_id": 32366, "name": "FENGYUN 1C DEB", "group": "fengyun-1c-debris", "lat": 37.64473368107531, "lon": -72.68089531382317, "alt_km": 930.8981958191298, "timestamp": "2025-12-03T10:52:57.740607+00:00", "meta": {"OBJECT_NAME": "FENGYUN 1C DEB", "OBJECT_ID": "1999-025CZK", "EPOCH": "2025-11-30T14:15:29.013120", "MEAN_MOTION": 14.13711554, "ECCENTRICITY": 0.0135391, "INCLINATION": 96.7752, "RA_OF_ASC_NODE": 99.8876, "ARG_OF_PERICENTER": 303.6613, "MEAN_ANOMALY": 55.1713, "EPHEMERIS_TYPE": 0, "CLASSIFICATION_TYPE": "U", "NORAD_CAT_ID": 32366, "ELEMENT_SET_NO": 999, "REV_AT_EPOCH": 93032, "BSTAR": 0.0013408, "MEAN_MOTION_DOT": 2.737e-05, "MEAN_MOTION_DDOT": 0}, "tle": {"line1": "1 32366U 99025CZK 25334.59408580  .00002737  00000+0  13408-2 0  9997", "line2": "2 32366  96.7752  99.8876 0135391 303.6613  55.1713 14.13711554930320"}}, "geometry": {"type": "Point", "coordinates": [-72.68089531382317, 37.64473368107531]}}, {"type": "Feature", "properties": {"norad_id": 32372, "name": "FENGYUN 1C DEB", "group": "fengyun-1c-debris", "lat": -14.567979944759422, "lon": -136.92066549208448, "alt_km": 1050.0251317358288, "timestamp": "2025-12-03T10:52:57.740617+00:00", "meta": {"OBJECT_NAME": "FENGYUN 1C DEB", "OBJECT_ID": "1999-025CZR", "EPOCH": "2025-11-30T21:48:44.835264", "MEAN_MOTION": 13.3530275, "ECCENTRICITY": 0.04574659, "INCLINATION": 97.31, "RA_OF_ASC_NODE": 219.3372, "ARG_OF_PERICENTER": 70.903, "MEAN_ANOMALY": 294.1051, "EPHEMERIS_TYPE": 0, "CLASSIFICATION_TYPE": "U", "NORAD_CAT_ID": 32372, "ELEMENT_SET_NO": 999, "REV_AT_EPOCH": 59982, "BSTAR": 0.0023360398, "MEAN_MOTION_DOT": 2.126e-05, "MEAN_MOTION_DDOT": 0}, "tle": {"line1": "1 32372U 99025CZR 25334.90885226  .00002126  00000+0  23360-2 0  9995", "line2": "2 32372  97.3100 219.3372 0457465  70.9030 294.1051 13.35302750599820"}}, "geometry": {"type": "Point", "coordinates": [-136.92066549208448, -14.567979944759422]}}, {"type": "Feature", "properties": {"norad_id": 32409, "name": "FENGYUN 1C DEB", "group": "fengyun-1c-debris", "lat": 7.332391430185965, "lon": 138.36111710499247, "alt_km": 672.2678757079075, "timestamp": "2025-12-03T10:52:57.740627+00:00", "meta": {"OBJECT_NAME": "FENGYUN 1C DEB", "OBJECT_ID": "1999-025CZV", "EPOCH": "2025-11-28T17:00:53.733600", "MEAN_MOTION": 14.75669167, "ECCENTRICITY": 0.00396143, "INCLINATION": 99.568, "RA_OF_ASC_NODE": 133.9986, "ARG_OF_PERICENTER": 196.5899, "MEAN_ANOMALY": 179.8691, "EPHEMERIS_TYPE": 0, "CLASSIFICATION_TYPE": "U", "NORAD_CAT_ID": 32409, "ELEMENT_SET_NO": 999, "REV_AT_EPOCH": 58632, "BSTAR": 0.001812585, "MEAN_MOTION_DOT": 0.00012494, "MEAN_MOTION_DDOT": 0}, "tle": {"line1": "1 32409U 99025CZV 25332.70895525  .00012494  00000+0  18126-2 0  9998", "line2": "2 32409  99.5680 133.9986 0039614 196.5899 179.8691 14.75669167586323"}}, "geometry": {"type": "Point", "coordinates": [138.36111710499247, 7.332391430185965]}}, {"type": "Feature", "properties": {"norad_id": 32411, "name": "FENGYUN 1C DEB", "group": "fengyun-1c-debris", "lat": 19.56480115659842, "lon": -107.02491953476985, "alt_km": 776.6427099775474, "timestamp": "2025-12-03T10:52:57.740638+00:00", "meta": {"OBJECT_NAME": "FENGYUN 1C DEB", "OBJECT_ID": "1999-025CZX", "EPOCH": "2025-11-24T13:52:19.422048", "MEAN_MOTION": 14.09760765, "ECCENTRICITY": 0.01249082, "INCLINATION": 98.4278, "RA_OF_ASC_NODE": 247.681, "ARG_OF_PERICENTER": 67.9682, "MEAN_ANOMALY": 293.4704, "EPHEMERIS_TYPE": 0, "CLASSIFICATION_TYPE": "U", "NORAD_CAT_ID": 32411, "ELEMENT_SET_NO": 999, "REV_AT_EPOCH": 65558, "BSTAR": 0.00046259711, "MEAN_MOTION_DOT": 8.34e-06, "MEAN_MOTION_DDOT": 0}, "tle": {"line1": "1 32411U 99025CZX 25328.57800257  .00000834  00000+0  46260-3 0  9995", "line2": "2 32411  98.4278 247.6810 0124908  67.9682 293.4704 14.09760765655584"}}, "geometry": {"type": "Point", "coordinates": [-107.02491953476985, 19.56480115659842]}}, {"type": "Feature", "properties": {"norad_id": 32414, "name": "FENGYUN 1C DEB", "group": "fengyun-1c-debris", "lat": -13.047990985954977, "lon": -133.94236642047724, "alt_km": 867.307460049502, "timestamp": "2025-12-03T10:52:57.740648+00:00", "meta": {"OBJECT_NAME": "FENGYUN 1C DEB", "OBJECT_ID": "1999-025DAA", "EPOCH": "2025-12-02T22:07:30.753408", "MEAN_MOTION": 14.18324916, "ECCENTRICITY": 0.0045282, "INCLINATION": 98.8592, "RA_OF_ASC_NODE": 47.5985, "ARG_OF_PERICENTER": 27.2148, "MEAN_ANOMALY": 333.1386, "EPHEMERIS_TYPE": 0, "CLASSIFICATION_TYPE": "U", "NORAD_CAT_ID": 32414, "ELEMENT_SET_NO": 999, "REV_AT_EPOCH": 93593, "BSTAR": 0.0017857, "MEAN_MOTION_DOT": 3.674e-05, "MEAN_MOTION_DDOT": 0}, "tle": {"line1": "1 32414U 99025DAA 25336.92188372  .00003674  00000+0  17857-2 0  9997", "line2": "2 32414  98.8592  47.5985 0045282  27.2148 333.1386 14.18324916935935"}}, "geometry": {"type": "Point", "coordinates": [-133.94236642047724, -13.047990985954977]}}, {"type": "Feature", "properties": {"norad_id": 32419, "name": "FENGYUN 1C DEB", "group": "fengyun-1c-debris", "lat": -81.45219605671119, "lon": -17.921932993333, "alt_km": 1028.5623196927681, "timestamp": "2025-12-03T10:52:57.740658+00:00", "meta": {"OBJECT_NAME": "FENGYUN 1C DEB", "OBJECT_ID": "1999-025DAF", "EPOCH": "2025-12-01T13:18:33.510528", "MEAN_MOTION": 14.09844164, "ECCENTRICITY": 0.02843724, "INCLINATION": 97.9442, "RA_OF_ASC_NODE": 272.1151, "ARG_OF_PERICENTER": 61.2588, "MEAN_ANOMALY": 301.6841, "EPHEMERIS_TYPE": 0, "CLASSIFICATION_TYPE": "U", "NORAD_CAT_ID": 32419, "ELEMENT_SET_NO": 999, "REV_AT_EPOCH": 63413, "BSTAR": 0.00077117327, "MEAN_MOTION_DOT": 1.939e-05, "MEAN_MOTION_DDOT": 0}, "tle": {"line1": "1 32419U 99025DAF 25335.55455452  .00001939  00000+0  77117-3 0  9994", "line2": "2 32419  97.9442 272.1151 0284372  61.2588 301.6841 14.09844164634132"}}, "geometry": {"type": "Point", "coordinates": [-17.921932993333, -81.45219605671119]}}, {"type": "Feature", "properties": {"norad_id": 32422, "name": "FENGYUN 1C DEB", "group": "fengyun-1c-debris", "lat": 63.557148277210985, "lon": -53.631251979644205, "alt_km": 1092.1243772164198, "timestamp": "2025-12-03T10:52:57.740668+00:00", "meta": {"OBJECT_NAME": "FENGYUN 1C DEB", "OBJECT_ID": "1999-025DAJ", "EPOCH": "2025-11-29T15:17:31.788672", "MEAN_MOTION": 13.97980957, "ECCENTRICITY": 0.02986697, "INCLINATION": 97.8389, "RA_OF_ASC_NODE": 107.0206, "ARG_OF_PERICENTER": 330.1441, "MEAN_ANOMALY": 28.2972, "EPHEMERIS_TYPE": 0, "CLASSIFICATION_TYPE": "U", "NORAD_CAT_ID": 32422, "ELEMENT_SET_NO": 999, "REV_AT_EPOCH": 62950, "BSTAR": 0.00026446988, "MEAN_MOTION_DOT": 5.11e-06, "MEAN_MOTION_DDOT": 0}, "tle": {"line1": "1 32422U 99025DAJ 25333.63717348  .00000511  00000+0  26447-3 0  9995", "line2": "2 32422  97.8389 107.0206 0298669 330.1441  28.2972 13.97980957629501"}}, "geometry": {"type": "Point", "coordinates": [-53.631251979644205, 63.557148277210985]}}, {"type": "Feature", "properties": {"norad_id": 32425, "name": "FENGYUN 1C DEB", "group": "fengyun-1c-debris", "lat": 30.17634460731774, "lon": -48.01519015225152, "alt_km": 1002.7440824358655, "timestamp": "2025-12-03T10:52:57.740679+00:00", "meta": {"OBJECT_NAME": "FENGYUN 1C DEB", "OBJECT_ID": "1999-025DAM", "EPOCH": "2025-11-30T16:03:56.695680", "MEAN_MOTION": 14.16697533, "ECCENTRICITY": 0.02326647, "INCLINATION": 96.7011, "RA_OF_ASC_NODE": 125.9631, "ARG_OF_PERICENTER": 335.9912, "MEAN_ANOMALY": 23.0555, "EPHEMERIS_TYPE": 0, "CLASSIFICATION_TYPE": "U", "NORAD_CAT_ID": 32425, "ELEMENT_SET_NO": 999, "REV_AT_EPOCH": 69364, "BSTAR": 0.00044952502, "MEAN_MOTION_DOT": 1.14e-05, "MEAN_MOTION_DDOT": 0}, "tle": {"line1": "1 32425U 99025DAM 25334.66940620  .00001140  00000+0  44953-3 0  9994", "line2": "2 32425  96.7011 125.9631 0232664 335.9912  23.0555 14.16697533693647"}}, "geometry": {"type": "Point", "coordinates": [-48.01519015225152, 30.17634460731774]}}, {"type": "Feature", "properties": {"norad_id": 32430, "name": "FENGYUN 1C DEB", "group": "fengyun-1c-debris", "lat": 33.55398272734874, "lon": -2.766711866144753, "alt_km": 1031.1614605412342, "timestamp": "2025-12-03T10:52:57.740689+00:00", "meta": {"OBJECT_NAME": "FENGYUN 1C DEB", "OBJECT_ID": "1999-025DAS", "EPOCH": "2025-11-28T08:01:51.379680", "MEAN_MOTION": 13.700237, "ECCENTRICITY": 0.03669598, "INCLINATION": 98.6995, "RA_OF_ASC_NODE": 358.4209, "ARG_OF_PERICENTER": 308.4, "MEAN_ANOMALY": 48.4718, "EPHEMERIS_TYPE": 0, "CLASSIFICATION_TYPE": "U", "NORAD_CAT_ID": 32430, "ELEMENT_SET_NO": 999, "REV_AT_EPOCH": 91006, "BSTAR": 0.0013292219, "MEAN_MOTION_DOT": 1.837e-05, "MEAN_MOTION_DDOT": 0}, "tle": {"line1": "1 32430U 99025DAS 25332.33462245  .00001837  00000+0  13292-2 0  9998", "line2": "2 32430  98.6995 358.4209 0366959 308.4000  48.4718 13.70023700910065"}}, "geometry": {"type": "Point", "coordinates": [-2.766711866144753, 33.55398272734874]}}, {"type": "Feature", "properties": {"norad_id": 32432, "name": "FENGYUN 1C DEB", "group": "fengyun-1c-debris", "lat": 1.903123643875105, "lon": 13.602752309801144, "alt_km": 611.5011541841914, "timestamp": "2025-12-03T10:52:57.740700+00:00", "meta": {"OBJECT_NAME": "FENGYUN 1C DEB", "OBJECT_ID": "1999-025DAU", "EPOCH": "2025-12-02T08:25:01.319808", "MEAN_MOTION": 14.52224437, "ECCENTRICITY": 0.01734006, "INCLINATION": 98.1727, "RA_OF_ASC_NODE": 12.8023, "ARG_OF_PERICENTER": 337.8892, "MEAN_ANOMALY": 21.4887, "EPHEMERIS_TYPE": 0, "CLASSIFICATION_TYPE": "U", "NORAD_CAT_ID": 32432, "ELEMENT_SET_NO": 999, "REV_AT_EPOCH": 70544, "BSTAR": 0.0019660869, "MEAN_MOTION_DOT": 9.677e-05, "MEAN_MOTION_DDOT": 0}, "tle": {"line1": "1 32432U 99025DAU 25336.35070972  .00009677  00000+0  19661-2 0  9994", "line2": "2 32432  98.1727  12.8023 0173400 337.8892  21.4887 14.52224437705445"}}, "geometry": {"type": "Point", "coordinates": [13.602752309801144, 1.903123643875105]}}]}